ONEWEB-0570             
1 55149U 23004K   24114.48740797 -.00000461  00000+0 -12019-2 0  9998
2 55149  87.9117 131.7255 0002984  96.1375 264.0097 13.18679550 66271
ONEWEB-0571             
1 55150U 23004L   24114.48110310  .00000031  00000+0  46544-4 0  9995
2 55150  87.9128 131.7265 0003023 105.7569 254.3897 13.18685308 66282
ONEWEB-0572             
1 55151U 23004M   24114.18810952  .00000091  00000+0  20184-3 0  9999
2 55151  87.9202 162.0869 0002372  96.0804 264.0598 13.17652570 64102
ONEWEB-0573             
1 55152U 23004N   24114.09538210  .00000091  00000+0  19741-3 0  9991
2 55152  87.9123 131.8269 0003025  98.5239 261.6236 13.18685866 66220
ONEWEB-0588             
1 55153U 23004P   24114.08906433  .00000079  00000+0  16719-3 0  9995
2 55153  87.9128 131.7920 0002661  88.8892 271.2544 13.18686284 66225
ONEWEB-0598             
1 55154U 23004Q   24113.68404995  .00000020  00000+0  19866-4 0  9990
2 55154  87.9014 177.3332 0002681 111.3808 248.7606 13.11418197 62946
ONEWEB-0599             
1 55155U 23004R   24114.52822670 -.00000003  00000+0 -40212-4 0  9991
2 55155  87.9208 161.9995 0002094 100.9512 259.1855 13.17650439 64150
ONEWEB-0614             
1 55156U 23004S   24113.67915506 -.00000224  00000+0 -66848-3 0  9995
2 55156  87.9016 177.3369 0002139  88.0542 272.0831 13.11415044 62884
